#aV2024  1 28  0  0  0.00000000     288 DD+AD WGS84 FIT  NGA
## 2299      0.00000000   300.00000000 60337 0.0000000000000
+   31     1  2  3  4  5  6  7  8  9 10 11 12 13 14 15 16 17
+         18 19 20 21 22 23 24 25 26 28 29 30 31 32  0  0  0
+          0  0  0  0  0  0  0  0  0  0  0  0  0  0  0  0  0
+          0  0  0  0  0  0  0  0  0  0  0  0  0  0  0  0  0
+          0  0  0  0  0  0  0  0  0  0  0  0  0  0  0  0  0
++         2  2  2  2  2  2  2  2  2  2  2  2  2  2  2  2  2
++         2  2  2  2  2  2  2  2  2  2  2  2  2  2  0  0  0
++         0  0  0  0  0  0  0  0  0  0  0  0  0  0  0  0  0
++         0  0  0  0  0  0  0  0  0  0  0  0  0  0  0  0  0
++         0  0  0  0  0  0  0  0  0  0  0  0  0  0  0  0  0
%c cc cc ccc ccc cccc cccc cccc cccc ccccc ccccc ccccc ccccc
%c cc cc ccc ccc cccc cccc cccc cccc ccccc ccccc ccccc ccccc
%f  0.0000000  0.000000000  0.00000000000  0.000000000000000
%f  0.0000000  0.000000000  0.00000000000  0.000000000000000
%i    0    0    0    0      0      0      0      0         0
%i    0    0    0    0      0      0      0      0         0
/*      NGA, ST. LOUIS,MO.                                  
/*   EPHEMERIS COMPUTED FROM 2 DAYS OF DATA                 
/*   EPOCHA v9 SMOOTHER                                     
/*   G2296 IERS2010 SATIGS SATAPC                           
*  2024  1 28  8 55  0.00000000
P  1 -12508.305949  20692.857635  10270.610755    167.457060                    
V  1   1601.735157 -13662.319632  28863.180843      0.012683                    
P  2 -14377.077579  14564.884188  17296.696337   -494.217284                    
V  2   1700.369151 -21073.695741  19975.059472      0.057527                    
P  3 -22270.363511  11994.490023  -8047.664198    155.965773                    
V  3 -10206.622347    807.385498  30088.107712      0.252138                    
P  4 -12540.277194   8708.802536 -21727.481564    277.392564                    
V  4 -19104.171846 -19920.082570   2908.401460      0.095986                    
P  5  25666.101166  -5816.984161  -4098.363249   -159.636107                    
V  5  -3923.101912   3891.377715 -31324.475344     -0.014523                    
P  6   7754.764891  17641.267162 -18156.610691    428.761833                    
V  6  -6933.514519  22144.660919  18583.656490     -0.139366                    
P  7  -4668.568054  25816.915179   2304.129089    -48.190560                    
V  7  -3998.664402   1474.850505 -31648.800857     -0.091959                    
P  8 -18771.319523   1018.630681  18832.263422   -164.267899                    
V  8 -16966.120395 -16993.953514 -15495.316492     -0.018971                    
P  9   -334.796654  18188.065191 -19416.766077     73.275199                    
V  9 -18977.314282 -15557.769862 -14364.186895      0.124217                    
P 10  -8761.676687 -12667.117402  21881.956286    -71.072676                    
V 10  26049.796657  -7795.456362   5658.185680     -0.015076                    
P 11  13804.470581   6346.576531 -21762.109666   -555.966336                    
V 11  -8070.554895  26471.753941   2551.542302     -0.135068                    
P 12  23047.464986 -10654.307587  -7956.663720   -472.333415                    
V 12  10056.736211    446.177587  29664.531448     -0.037700                    
P 13  20102.771984   9699.662576  14360.170428    620.163765                    
V 13  10008.889044  15632.762506 -24014.836820      0.036369                    
P 14   4401.944101  14909.888154  21559.407899    310.593370                    
V 14 -26490.881333   6900.441470    453.982110      0.101423                    
P 15  18718.797924  -3181.665198  18164.413813    121.798510                    
V 15  18579.082131  15443.267083 -15806.883650      0.039088                    
P 16 -25023.429191  -1935.198188  -9698.773153   -374.923138                    
V 16  11077.323179  -4280.383815 -28261.190780      0.079951                    
P 17  10457.952262  22080.740018  10654.804665    718.682654                    
V 17 -10382.709127  -8021.119859  28082.433172     -0.011052                    
P 18   4640.620453 -25861.342518   3145.519201   -542.639391                    
V 18   3455.717538  -3213.207454 -31843.485598     -0.088327                    
P 19  16757.877520  20830.792179    907.839502    432.721201                    
V 19  -2578.529159    387.179872  31699.709186      0.052799                    
P 20  20958.651178   2382.284237 -15978.583320    389.670879                    
V 20 -17416.760325  11020.818465 -21285.721025     -0.014449                    
P 21 -15404.165199   8791.706454  19942.419701    136.926175                    
V 21   2150.776875 -24529.090071  13754.926362     -0.012820                    
P 22  11951.718873  12326.194860  20620.597087     40.712001                    
V 22 -24633.867792   5846.932036  11301.398616     -0.063842                    
P 23   5283.046786 -16146.921436  20386.370826    144.293790                    
V 23  24894.988313  -7004.507199 -12193.467506      0.077484                    
P 24  14761.782036 -13135.150093  17144.378217   -421.944580                    
V 24   -870.034059  22933.939868  18308.437630     -0.067457                    
P 25  13713.536848 -16238.799038 -16092.289107    486.765297                    
V 25  19716.781604  -3779.297901  21328.933704      0.012610                    
P 26 -18923.123461  -6903.610308 -17632.280354    196.050759                    
V 26  20004.378500  -9503.317527 -17527.176054     -0.037496                    
P 28  -7221.949038 -19949.580199 -16002.487661   -112.472235                    
V 28   6027.441750 -19453.107161  21555.983442     -0.119805                    
P 29   3012.664800 -17125.508001 -20095.466453   -608.010788                    
V 29  17707.379915  18242.982491 -13020.302703      0.006706                    
P 30   2974.707434  23605.930431  11648.984655   -439.910867                    
V 30  -6678.330533  13543.185878 -26285.217278      0.048107                    
P 31 -12286.177765 -11197.609202 -20840.078272   -227.540553                    
V 31   7778.869300 -24936.210843   9303.028344     -0.001901                    
P 32 -14643.113333 -21031.706396   7574.465081   -608.192738                    
V 32   8431.516066   4611.771688  29678.064237     -0.024966                    
EOF
